{
  "type": "FeatureCollection",
  "features": [
    {
      "type": "Feature",
      "properties": {
        "norad_id": 34554,
        "name": "COSMOS 2251 DEB",
        "group": "cosmos-2251-debris",
        "lat": -71.4958683276129,
        "lon": 176.47013424920306,
        "alt_km": 774.8834997833928,
        "timestamp": "2025-12-13T10:41:26.160695+00:00",
        "meta_object_name": "COSMOS 2251 DEB",
        "meta_object_id": "1993-036UQ",
        "meta_epoch": "2025-12-12T22:03:19.066752",
        "meta_mean_motion": 14.37939496,
        "meta_eccentricity": 0.00229934,
        "meta_inclination": 74.0385,
        "meta_ra_of_asc_node": 298.6609,
        "meta_arg_of_pericenter": 0.957,
        "meta_mean_anomaly": 55.5895,
        "meta_ephemeris_type": 0,
        "meta_classification_type": "U",
        "meta_norad_cat_id": 34554,
        "meta_element_set_no": 999,
        "meta_rev_at_epoch": 87758,
        "meta_bstar": 0.0005509245,
        "meta_mean_motion_dot": 1.643e-05,
        "meta_mean_motion_ddot": 0,
        "tle_line1": "1 34554U 93036UQ  25346.91897068  .00001643  00000+0  55092-3 0  9997",
        "tle_line2": "2 34554  74.0385 298.6609 0022993   0.9570  55.5895 14.37939496877583"
      },
      "geometry": {
        "type": "Point",
        "coordinates": [
          176.47013424920306,
          -71.4958683276129
        ]
      }
    },
    {
      "type": "Feature",
      "properties": {
        "norad_id": 34556,
        "name": "COSMOS 2251 DEB",
        "group": "cosmos-2251-debris",
        "lat": 18.65480409414454,
        "lon": -62.08371211278975,
        "alt_km": 631.0851081127012,
        "timestamp": "2025-12-13T10:41:26.160706+00:00",
        "meta_object_name": "COSMOS 2251 DEB",
        "meta_object_id": "1993-036US",
        "meta_epoch": "2025-12-12T09:44:10.295808",
        "meta_mean_motion": 14.77791296,
        "meta_eccentricity": 0.00077848,
        "meta_inclination": 74.0158,
        "meta_ra_of_asc_node": 125.5121,
        "meta_arg_of_pericenter": 186.3549,
        "meta_mean_anomaly": 204.7388,
        "meta_ephemeris_type": 0,
        "meta_classification_type": "U",
        "meta_norad_cat_id": 34556,
        "meta_element_set_no": 999,
        "meta_rev_at_epoch": 88324,
        "meta_bstar": 0.0034481142,
        "meta_mean_motion_dot": 0.00024834,
        "meta_mean_motion_ddot": 0,
        "tle_line1": "1 34556U 93036US  25346.40567472  .00024834  00000+0  34481-2 0  9991",
        "tle_line2": "2 34556  74.0158 125.5121 0007784 186.3549 204.7388 14.77791296883249"
      },
      "geometry": {
        "type": "Point",
        "coordinates": [
          -62.08371211278975,
          18.65480409414454
        ]
      }
    },
    {
      "type": "Feature",
      "properties": {
        "norad_id": 34560,
        "name": "COSMOS 2251 DEB",
        "group": "cosmos-2251-debris",
        "lat": 37.6772160561798,
        "lon": 153.54657964056372,
        "alt_km": 661.3333401134159,
        "timestamp": "2025-12-13T10:41:26.160716+00:00",
        "meta_object_name": "COSMOS 2251 DEB",
        "meta_object_id": "1993-036UW",
        "meta_epoch": "2025-12-12T10:10:53.971392",
        "meta_mean_motion": 14.72128553,
        "meta_eccentricity": 0.00146169,
        "meta_inclination": 74.0168,
        "meta_ra_of_asc_node": 142.7468,
        "meta_arg_of_pericenter": 224.151,
        "meta_mean_anomaly": 165.5315,
        "meta_ephemeris_type": 0,
        "meta_classification_type": "U",
        "meta_norad_cat_id": 34560,
        "meta_element_set_no": 999,
        "meta_rev_at_epoch": 88247,
        "meta_bstar": 0.0032063543,
        "meta_mean_motion_dot": 0.00020251,
        "meta_mean_motion_ddot": 0,
        "tle_line1": "1 34560U 93036UW  25346.42423578  .00020251  00000+0  32064-2 0  9990",
        "tle_line2": "2 34560  74.0168 142.7468 0014616 224.1510 165.5315 14.72128553882474"
      },
      "geometry": {
        "type": "Point",
        "coordinates": [
          153.54657964056372,
          37.6772160561798
        ]
      }
    },
    {
      "type": "Feature",
      "properties": {
        "norad_id": 34563,
        "name": "COSMOS 2251 DEB",
        "group": "cosmos-2251-debris",
        "lat": 71.43641418716977,
        "lon": -36.06922253448016,
        "alt_km": 739.2814997744808,
        "timestamp": "2025-12-13T10:41:26.160726+00:00",
        "meta_object_name": "COSMOS 2251 DEB",
        "meta_object_id": "1993-036UZ",
        "meta_epoch": "2025-12-12T21:01:49.368576",
        "meta_mean_motion": 14.46511069,
        "meta_eccentricity": 0.00138854,
        "meta_inclination": 74.0377,
        "meta_ra_of_asc_node": 203.4533,
        "meta_arg_of_pericenter": 297.3592,
        "meta_mean_anomaly": 79.416,
        "meta_ephemeris_type": 0,
        "meta_classification_type": "U",
        "meta_norad_cat_id": 34563,
        "meta_element_set_no": 999,
        "meta_rev_at_epoch": 88199,
        "meta_bstar": 0.00068786465,
        "meta_mean_motion_dot": 2.453e-05,
        "meta_mean_motion_ddot": 0,
        "tle_line1": "1 34563U 93036UZ  25346.87626584  .00002453  00000+0  68786-3 0  9999",
        "tle_line2": "2 34563  74.0377 203.4533 0013885 297.3592  79.4160 14.46511069881992"
      },
      "geometry": {
        "type": "Point",
        "coordinates": [
          -36.06922253448016,
          71.43641418716977
        ]
      }
    },
    {
      "type": "Feature",
      "properties": {
        "norad_id": 34564,
        "name": "COSMOS 2251 DEB",
        "group": "cosmos-2251-debris",
        "lat": -41.44501291231321,
        "lon": 71.35124901354706,
        "alt_km": 768.6132419012711,
        "timestamp": "2025-12-13T10:41:26.160736+00:00",
        "meta_object_name": "COSMOS 2251 DEB",
        "meta_object_id": "1993-036VA",
        "meta_epoch": "2025-12-12T20:52:29.583840",
        "meta_mean_motion": 14.40690777,
        "meta_eccentricity": 0.00190355,
        "meta_inclination": 74.0323,
        "meta_ra_of_asc_node": 237.7711,
        "meta_arg_of_pericenter": 341.7947,
        "meta_mean_anomaly": 137.3992,
        "meta_ephemeris_type": 0,
        "meta_classification_type": "U",
        "meta_norad_cat_id": 34564,
        "meta_element_set_no": 999,
        "meta_rev_at_epoch": 88008,
        "meta_bstar": 0.00039435837,
        "meta_mean_motion_dot": 1.236e-05,
        "meta_mean_motion_ddot": 0,
        "tle_line1": "1 34564U 93036VA  25346.86978685  .00001236  00000+0  39436-3 0  9999",
        "tle_line2": "2 34564  74.0323 237.7711 0019035 341.7947 137.3992 14.40690777880087"
      },
      "geometry": {
        "type": "Point",
        "coordinates": [
          71.35124901354706,
          -41.44501291231321
        ]
      }
    },
    {
      "type": "Feature",
      "properties": {
        "norad_id": 34567,
        "name": "COSMOS 2251 DEB",
        "group": "cosmos-2251-debris",
        "lat": -45.008762086842026,
        "lon": -7.855514311670208,
        "alt_km": 764.6680490346625,
        "timestamp": "2025-12-13T10:41:26.160746+00:00",
        "meta_object_name": "COSMOS 2251 DEB",
        "meta_object_id": "1993-036VD",
        "meta_epoch": "2025-12-12T22:25:07.639680",
        "meta_mean_motion": 14.2401674,
        "meta_eccentricity": 0.00744441,
        "meta_inclination": 74.0399,
        "meta_ra_of_asc_node": 156.4302,
        "meta_arg_of_pericenter": 230.6412,
        "meta_mean_anomaly": 256.4203,
        "meta_ephemeris_type": 0,
        "meta_classification_type": "U",
        "meta_norad_cat_id": 34567,
        "meta_element_set_no": 999,
        "meta_rev_at_epoch": 87127,
        "meta_bstar": 0.0003371743,
        "meta_mean_motion_dot": 7.71e-06,
        "meta_mean_motion_ddot": 0,
        "tle_line1": "1 34567U 93036VD  25346.93411620  .00000771  00000+0  33717-3 0  9990",
        "tle_line2": "2 34567  74.0399 156.4302 0074444 230.6412 256.4203 14.24016740871277"
      },
      "geometry": {
        "type": "Point",
        "coordinates": [
          -7.855514311670208,
          -45.008762086842026
        ]
      }
    },
    {
      "type": "Feature",
      "properties": {
        "norad_id": 34569,
        "name": "COSMOS 2251 DEB",
        "group": "cosmos-2251-debris",
        "lat": 34.09341881249169,
        "lon": -151.93329015789644,
        "alt_km": 695.5684854219835,
        "timestamp": "2025-12-13T10:41:26.160756+00:00",
        "meta_object_name": "COSMOS 2251 DEB",
        "meta_object_id": "1993-036VF",
        "meta_epoch": "2025-12-12T21:06:25.492608",
        "meta_mean_motion": 14.24753601,
        "meta_eccentricity": 0.01573116,
        "meta_inclination": 73.9904,
        "meta_ra_of_asc_node": 197.8836,
        "meta_arg_of_pericenter": 26.2401,
        "meta_mean_anomaly": 347.368,
        "meta_ephemeris_type": 0,
        "meta_classification_type": "U",
        "meta_norad_cat_id": 34569,
        "meta_element_set_no": 999,
        "meta_rev_at_epoch": 86970,
        "meta_bstar": 0.00070179375,
        "meta_mean_motion_dot": 1.834e-05,
        "meta_mean_motion_ddot": 0,
        "tle_line1": "1 34569U 93036VF  25346.87946172  .00001834  00000+0  70179-3 0  9994",
        "tle_line2": "2 34569  73.9904 197.8836 0157311  26.2401 347.3680 14.24753601869700"
      },
      "geometry": {
        "type": "Point",
        "coordinates": [
          -151.93329015789644,
          34.09341881249169
        ]
      }
    }
  ]
}